NORAD_CAT_ID,OBJECT_NAME,OBJECT_TYPE,EPOCH,MEAN_MOTION,ECCENTRICITY,INCLINATION,RA_OF_ASC_NODE,ARG_OF_PERICENTER,MEAN_ANOMALY,BSTAR,MEAN_MOTION_DOT,MEAN_MOTION_DDOT,TLE_LINE0,TLE_LINE1,TLE_LINE2,SEMIMAJOR_AXIS,PERIOD,APOGEE,PERIGEE,DECAYED
53804.0,STARLINK-4729,PAYLOAD,2023-10-07 16:15:32,15.08839231,0.0001542,53.2173,267.3913,96.0307,264.0861,-4.1501e-05,-9.48e-06,0.0,0 STARLINK-4729,1 53804U 22111AH  23280.67746428 -.00000948  00000-0 -41501-4 0  9994,2 53804  53.2173 267.3913 0001542  96.0307 264.0861 15.08839231 60431,6917.883,95.438,540.814,538.681,0.0
53804.0,STARLINK-4729,PAYLOAD,2023-10-08 06:34:00,15.08843159,0.0001511,53.2177,264.7156,95.8077,264.3087,6.8621e-05,8.04e-06,0.0,0 STARLINK-4729,1 53804U 22111AH  23281.27361979  .00000804  00000-0  68621-4 0  9996,2 53804  53.2177 264.7156 0001511  95.8077 264.3087 15.08843159 59718,6917.871,95.437,540.781,538.69,0.0
53804.0,STARLINK-4729,PAYLOAD,2023-10-08 16:06:19,15.08845292,0.0001459,53.2173,262.9287,91.0796,269.0363,2.7347e-05,1.47e-06,0.0,0 STARLINK-4729,1 53804U 22111AH  23281.67105867  .00000147  00000-0  27347-4 0  9992,2 53804  53.2173 262.9287 0001459  91.0796 269.0363 15.08845292 60582,6917.864,95.437,540.739,538.72,0.0
53804.0,STARLINK-4729,PAYLOAD,2023-10-09 03:14:02,15.08834069,0.0001659,53.2178,260.8456,85.408,274.7102,6.4245e-05,7.34e-06,0.0,0 STARLINK-4729,1 53804U 22111AH  23282.13474547  .00000734  00000-0  64245-4 0  9998,2 53804  53.2178 260.8456 0001659  85.4080 274.7102 15.08834069 59848,6917.899,95.438,540.911,538.616,0.0
53804.0,STARLINK-4729,PAYLOAD,2023-10-09 06:24:47,15.08844032,0.0001421,53.217,260.2544,89.6468,270.4687,5.9481e-05,6.59e-06,0.0,0 STARLINK-4729,1 53804U 22111AH  23282.26721909  .00000659  00000-0  59481-4 0  9991,2 53804  53.2170 260.2544 0001421  89.6468 270.4687 15.08844032 59869,6917.868,95.437,540.716,538.75,0.0
53804.0,STARLINK-4729,PAYLOAD,2023-10-09 15:57:06,15.08839018,0.0001496,53.2174,258.4702,94.1217,265.9946,1.9748e-05,2.6e-07,0.0,0 STARLINK-4729,1 53804U 22111AH  23282.66466320  .00000026  00000-0  19748-4 0  9998,2 53804  53.2174 258.4702 0001496  94.1217 265.9946 15.08839018 59925,6917.883,95.438,540.783,538.713,0.0
53804.0,STARLINK-4729,PAYLOAD,2023-10-09 22:18:39,15.08836622,0.000151,53.2174,257.281,95.3063,264.8101,1.7375e-05,-1.1e-07,0.0,0 STARLINK-4729,1 53804U 22111AH  23282.92962494 -.00000011  00000-0  17375-4 0  9999,2 53804  53.2174 257.2810 0001510  95.3063 264.8101 15.08836622 60775,6917.891,95.438,540.8,538.711,0.0
53804.0,STARLINK-4729,PAYLOAD,2023-10-10 11:01:43,15.0884919,0.0001922,53.2182,254.8969,105.0526,255.0679,6.8874e-05,8.08e-06,0.0,0 STARLINK-4729,1 53804U 22111AH  23283.45953356  .00000808  00000-0  68874-4 0  9998,2 53804  53.2182 254.8969 0001922 105.0526 255.0679 15.08849190 60048,6917.852,95.437,541.047,538.388,0.0
53804.0,STARLINK-4729,PAYLOAD,2023-10-10 15:47:55,15.08818462,0.0001133,53.2189,254.0081,96.9641,263.148,-0.0002252,-3.868e-05,0.0,0 STARLINK-4729,1 53804U 22111AH  23283.65828050 -.00003868  00000-0 -22520-3 0  9990,2 53804  53.2189 254.0081 0001133  96.9641 263.1480 15.08818462 60073,6917.946,95.439,540.595,539.027,0.0
53804.0,STARLINK-4729,PAYLOAD,2023-10-11 02:55:36,15.08827724,0.000169,53.2186,251.927,90.3148,269.8038,-7.0201e-05,-1.405e-05,0.0,0 STARLINK-4729,1 53804U 22111AH  23284.12195535 -.00001405  00000-0 -70201-4 0  9993,2 53804  53.2186 251.9270 0001690  90.3148 269.8038 15.08827724 60145,6917.918,95.438,540.952,538.614,0.0
53804.0,STARLINK-4729,PAYLOAD,2023-10-11 07:41:46,15.08832252,0.0001749,53.2183,251.0323,105.02,255.0985,-6.1274e-05,-1.263e-05,0.0,0 STARLINK-4729,1 53804U 22111AH  23284.32067280 -.00001263  00000-0 -61274-4 0  9992,2 53804  53.2183 251.0323 0001749 105.0200 255.0985 15.08832252 60982,6917.904,95.438,540.979,538.559,0.0
53804.0,STARLINK-4729,PAYLOAD,2023-10-12 04:21:45,15.08839187,0.0001389,53.2174,247.1674,94.0463,266.0688,0.00016831,2.392e-05,0.0,0 STARLINK-4729,1 53804U 22111AH  23285.18178115  .00002392  00000-0  16831-3 0  9997,2 53804  53.2174 247.1674 0001389  94.0463 266.0688 15.08839187 60307,6917.883,95.438,540.709,538.787,0.0
53804.0,STARLINK-4729,PAYLOAD,2023-10-12 07:32:32,15.08840449,0.0001439,53.218,246.5734,94.2375,265.8781,0.00016721,2.374e-05,0.0,0 STARLINK-4729,1 53804U 22111AH  23285.31426095  .00002374  00000-0  16721-3 0  9993,2 53804  53.2180 246.5734 0001439  94.2375 265.8781 15.08840449 61130,6917.879,95.438,540.739,538.749,0.0
53804.0,STARLINK-4729,PAYLOAD,2023-10-13 13:44:52,15.08843241,0.0001288,53.2172,240.9245,96.1775,263.9364,7.0777e-05,8.39e-06,0.0,0 STARLINK-4729,1 53804U 22111AH  23286.57282418  .00000839  00000-0  70777-4 0  9997,2 53804  53.2172 240.9245 0001288  96.1775 263.9364 15.08843241 61323,6917.87,95.437,540.627,538.844,0.0
53804.0,STARLINK-4729,PAYLOAD,2023-10-13 21:41:48,15.088376,0.0001463,53.218,239.4364,76.8881,283.2274,-9.3086e-05,-1.769e-05,0.0,0 STARLINK-4729,1 53804U 22111AH  23286.90403544 -.00001769  00000-0 -93086-4 0  9992,2 53804  53.2180 239.4364 0001463  76.8881 283.2274 15.08837600 61377,6917.888,95.438,540.765,538.741,0.0
53804.0,STARLINK-4729,PAYLOAD,2023-10-14 13:35:39,15.08847269,0.0001277,53.2174,236.4641,74.9421,285.1713,-3.4605e-05,-8.39e-06,0.0,0 STARLINK-4729,1 53804U 22111AH  23287.56642444 -.00000839  00000-0 -34605-4 0  9998,2 53804  53.2174 236.4641 0001277  74.9421 285.1713 15.08847269 61479,6917.858,95.437,540.607,538.84,0.0
53804.0,STARLINK-4729,PAYLOAD,2023-10-14 19:57:13,15.08828398,0.0002413,53.2163,235.2759,81.494,278.6325,-1.4753e-05,-5.23e-06,0.0,0 STARLINK-4729,1 53804U 22111AH  23287.83140107 -.00000523  00000-0 -14753-4 0  9999,2 53804  53.2163 235.2759 0002413  81.4940 278.6325 15.08828398 60709,6917.916,95.438,541.45,538.112,0.0
53804.0,STARLINK-4729,PAYLOAD,2023-10-14 21:32:37,15.08818292,0.000128,53.2168,234.9795,92.4334,267.6805,-0.00029393,-4.96e-05,0.0,0 STARLINK-4729,1 53804U 22111AH  23287.89765560 -.00004960  00000-0 -29393-3 0  9995,2 53804  53.2168 234.9795 0001280  92.4334 267.6805 15.08818292 61524,6917.947,95.439,540.697,538.926,0.0
53804.0,STARLINK-4729,PAYLOAD,2023-10-15 03:54:09,15.08824583,0.0001526,53.2166,233.7891,85.229,274.8876,-0.00021846,-3.762e-05,0.0,0 STARLINK-4729,1 53804U 22111AH  23288.16261230 -.00003762  00000-0 -21846-3 0  9995,2 53804  53.2166 233.7891 0001526  85.2290 274.8876 15.08824583 60752,6917.928,95.439,540.848,538.737,0.0
53804.0,STARLINK-4729,PAYLOAD,2023-10-15 07:04:55,15.08833045,0.000151,53.2169,233.1943,91.4856,268.631,-0.00015114,-2.692e-05,0.0,0 STARLINK-4729,1 53804U 22111AH  23288.29508487 -.00002692  00000-0 -15114-3 0  9999,2 53804  53.2169 233.1943 0001510  91.4856 268.6310 15.08833045 60776,6917.902,95.438,540.811,538.722,0.0
53804.0,STARLINK-4729,PAYLOAD,2023-10-15 13:26:27,15.08836134,0.0001474,53.2171,232.0047,88.8266,271.2895,-5.8002e-05,-1.211e-05,0.0,0 STARLINK-4729,1 53804U 22111AH  23288.56004062 -.00001211  00000-0 -58002-4 0  9999,2 53804  53.2171 232.0047 0001474  88.8266 271.2895 15.08836134 61621,6917.892,95.438,540.777,538.738,0.0
53804.0,STARLINK-4729,PAYLOAD,2023-10-16 05:20:17,15.08853106,0.0001542,53.2172,229.0306,83.4508,276.6659,0.00012381,1.684e-05,0.0,0 STARLINK-4729,1 53804U 22111AH  23289.22242457  .00001684  00000-0  12381-3 0  9996,2 53804  53.2172 229.0306 0001542  83.4508 276.6659 15.08853106 60918,6917.84,95.437,540.772,538.639,0.0
53804.0,STARLINK-4729,PAYLOAD,2023-10-16 19:38:46,15.08836396,0.0002403,53.217,226.3556,82.3557,277.7708,9.2935e-05,1.191e-05,0.0,0 STARLINK-4729,1 53804U 22111AH  23289.81859798  .00001191  00000-0  92935-4 0  9990,2 53804  53.2170 226.3556 0002403  82.3557 277.7708 15.08836396 61002,6917.891,95.438,541.419,538.094,0.0
53804.0,STARLINK-4729,PAYLOAD,2023-10-17 13:08:02,15.08827636,0.0003103,53.216,223.086,86.5323,273.6024,2.6447e-05,1.32e-06,0.0,0 STARLINK-4729,1 53804U 22111AH  23290.54724857  .00000132  00000-0  26447-4 0  9998,2 53804  53.2160 223.0860 0003103  86.5323 273.6024 15.08827636 61922,6917.918,95.438,541.93,537.637,0.0
53804.0,STARLINK-4729,PAYLOAD,2023-10-18 01:51:05,15.08851058,0.0001498,53.2168,220.7031,96.9954,263.1209,-0.00010152,-1.904e-05,0.0,0 STARLINK-4729,1 53804U 22111AH  23291.07715237 -.00001904  00000-0 -10152-3 0  9994,2 53804  53.2168 220.7031 0001498  96.9954 263.1209 15.08851058 62008,6917.847,95.437,540.748,538.675,0.0
53804.0,STARLINK-4729,PAYLOAD,2023-10-18 12:58:48,15.08840056,0.0001971,53.218,218.6224,89.5171,270.6047,-0.00016509,-2.915e-05,0.0,0 STARLINK-4729,1 53804U 22111AH  23291.54084156 -.00002915  00000-0 -16509-3 0  9990,2 53804  53.2180 218.6224 0001971  89.5171 270.6047 15.08840056 61263,6917.88,95.438,541.109,538.382,0.0
53804.0,STARLINK-4729,PAYLOAD,2023-10-19 04:52:38,15.08851185,0.0002503,53.2149,215.6511,85.7374,274.3904,0.0001492,2.088e-05,0.0,0 STARLINK-4729,1 53804U 22111AH  23292.20322537  .00002088  00000-0  14920-3 0  9996,2 53804  53.2149 215.6511 0002503  85.7374 274.3904 15.08851185 61368,6917.846,95.437,541.443,537.98,0.0
53804.0,STARLINK-4729,PAYLOAD,2023-10-19 19:11:07,15.08838472,0.0001623,53.2189,212.9691,100.7672,259.3503,1.1317e-05,-1.08e-06,0.0,0 STARLINK-4729,1 53804U 22111AH  23292.79939375 -.00000108  00000-0  11317-4 0  9994,2 53804  53.2189 212.9691 0001623 100.7672 259.3503 15.08838472 61454,6917.885,95.438,540.873,538.627,0.0
53804.0,STARLINK-4729,PAYLOAD,2023-10-19 22:21:53,15.08843149,0.0001728,53.2165,212.3768,109.7509,250.3669,4.9648e-05,5.02e-06,0.0,0 STARLINK-4729,1 53804U 22111AH  23292.93186873  .00000502  00000-0  49648-4 0  9992,2 53804  53.2165 212.3768 0001728 109.7509 250.3669 15.08843149 62284,6917.871,95.437,540.931,538.54,0.0
53804.0,STARLINK-4729,PAYLOAD,2023-10-20 01:32:39,15.08849053,0.0001593,53.2179,211.7814,100.5711,259.546,8.9412e-05,1.136e-05,0.0,0 STARLINK-4729,1 53804U 22111AH  23293.06434388  .00001136  00000-0  89412-4 0  9991,2 53804  53.2179 211.7814 0001593 100.5711 259.5460 15.08849053 61490,6917.853,95.437,540.82,538.616,0.0
